[{"OBJECT_NAME":"IRIDIUM 137","OBJECT_ID":"2017-083G","EPOCH":"2026-03-09T20:35:55.284000","MEAN_MOTION":14.34217602,"ECCENTRICITY":0.00024008,"INCLINATION":86.4028,"RA_OF_ASC_NODE":3.6635,"ARG_OF_PERICENTER":94.3456,"MEAN_ANOMALY":265.8014,"EPHEMERIS_TYPE":0,"CLASSIFICATION_TYPE":"U","NORAD_CAT_ID":43076,"ELEMENT_SET_NO":999,"REV_AT_EPOCH":42993,"BSTAR":5.494784e-6,"MEAN_MOTION_DOT":3.5e-7,"MEAN_MOTION_DDOT":0},{"OBJECT_NAME":"CZ-6A DEB","OBJECT_ID":"2024-140PA","EPOCH":"2026-03-09T01:49:18.185088","MEAN_MOTION":14.27157777,"ECCENTRICITY":0.0041238,"INCLINATION":88.99,"RA_OF_ASC_NODE":285.0633,"ARG_OF_PERICENTER":124.7494,"MEAN_ANOMALY":235.7594,"EPHEMERIS_TYPE":0,"CLASSIFICATION_TYPE":"U","NORAD_CAT_ID":61108,"ELEMENT_SET_NO":999,"REV_AT_EPOCH":7853,"BSTAR":0.0019841749,"MEAN_MOTION_DOT":4.899e-5,"MEAN_MOTION_DDOT":0}]
